#aV2010  5  2  0  0   .00000000      96 DD+AD WGS84 FIT  NGA
## 1582       .00000000   900.00000000 55318  .0000000000000
+   31     1  2  3  4  5  6  7  8  9 10 11 12 13 14 15 16 17
+         18 19 20 21 22 23 24 26 27 28 29 30 31 32  0  0  0
+          0  0  0  0  0  0  0  0  0  0  0  0  0  0  0  0  0
+          0  0  0  0  0  0  0  0  0  0  0  0  0  0  0  0  0
+          0  0  0  0  0  0  0  0  0  0  0  0  0  0  0  0  0
++         0  0  0  0  0  0  0  0  0  0  0  0  0  0  0  0  0
++         0  0  0  0  0  0  0  0  0  0  0  0  0  0  0  0  0
++         0  0  0  0  0  0  0  0  0  0  0  0  0  0  0  0  0
++         0  0  0  0  0  0  0  0  0  0  0  0  0  0  0  0  0
++         0  0  0  0  0  0  0  0  0  0  0  0  0  0  0  0  0
%c cc cc ccc ccc cccc cccc cccc cccc ccccc ccccc ccccc ccccc
%c cc cc ccc ccc cccc cccc cccc cccc ccccc ccccc ccccc ccccc
%f  0.0000000  0.000000000  0.00000000000  0.000000000000000
%f  0.0000000  0.000000000  0.00000000000  0.000000000000000
%i    0    0    0    0      0      0      0      0         0
%i    0    0    0    0      0      0      0      0         0
/*      NGA, ST. LOUIS,MO.                                  
/*   EPHEMERIS COMPUTED FROM  3 DAYS OF DATA                
/* CCCCCCCCCCCCCCCCCCCCCCCCCCCCCCCCCCCCCCCCCCCCCCCCCCCCCCCCC
/* CCCCCCCCCCCCCCCCCCCCCCCCCCCCCCCCCCCCCCCCCCCCCCCCCCCCCCCCC
*  2010  5  2  2 30   .00000000                                                 
P  1  20571.942203  11505.118155 -12521.418626   -115.434173                    
V  1 -15782.931817    -12.412894 -26035.636656      -.040592                    
P  2 -20089.464953   9020.435205 -14542.176718    251.807520                    
V  2   8956.841147 -16611.529037 -23176.676116       .035494                    
P  3  16066.844331  -2963.482119  20625.536281    549.431491                    
V  3  12587.192468  24013.629520  -5902.830944       .051206                    
P  4 -15430.435145  -5380.705886 -21156.371070     72.664443                    
V  4  15936.956107 -21177.936423  -5928.177761       .084686                    
P  5 -24871.634062   2974.813290   8941.366364     -2.225194                    
V  5 -10912.761470  -4063.805761 -28856.383167      -.005357                    
P  6  17331.872785   1709.772671  20269.834376    651.615524                    
V  6   9720.356820  23492.833131 -10245.940255      -.103816                    
P  7   1783.042358 -20608.885370  16554.721175      -.079376                    
V  7  14357.954316 -15531.793577 -21026.088466      -.003990                    
P  8  -8587.291905 -11952.241626  22048.891992      5.183783                    
V  8  19047.019619 -20530.714577  -4217.537974       .002226                    
P  9 -15598.775450  21460.611974   -182.142973      4.077785                    
V  9  -1546.828701  -1662.945557  32225.363681       .022104                    
P 10 -26422.552129  -4158.951892    149.690417    -41.621419                    
V 10     35.021687  -2776.679880 -31373.191887      -.008165                    
P 11   9600.679320 -24508.016828  -1790.207968    -59.967162                    
V 11   5706.972201    374.596782  30179.409951      -.023435                    
P 12 -10841.807629  12649.582042 -20597.469020   -120.145079                    
V 12 -25862.922852  -4763.252671  10808.499156       .043548                    
P 13  -3786.847039 -25453.275732  -6663.323167    304.842584                    
V 13   4200.061608   7308.928103 -30976.330272      -.003172                    
P 14  14721.243945  18895.983497 -11478.467934     40.689015                    
V 14   3319.336753  14417.515856  27542.600599       .044695                    
P 15 -10795.219574  12408.905382  20846.999584   -279.048060                    
V 15 -11182.491419 -24027.887347   8632.281870       .053605                    
P 16  26405.831580   1874.046933   3616.075564    -67.279005                    
V 16   4073.157209   2907.507621 -31378.928075      -.038141                    
P 17 -15175.109674 -19170.914516 -10527.334032    148.077164                    
V 17  -2567.773291 -13414.017598  27649.648099       .025361                    
P 18   8960.540967  16011.248584  19592.465833     65.548315                    
V 18 -24163.612210  -2654.225358  13024.262961       .024785                    
P 19  11062.945584 -12749.385597  20468.077028    -31.985974                    
V 19   8951.428744  24437.162411  10700.886510      -.026455                    
P 20   7791.726640 -14595.447012 -20905.332714     56.797970                    
V 20  26092.899586   3626.483426   7293.023839      -.006003                    
P 21   3039.429676  18557.629236  18843.576977    -57.297344                    
V 21 -16305.888265  17134.852225 -15132.682182      -.025695                    
P 22  20087.887922  12534.149599  12283.696758    173.142607                    
V 22 -15632.498090    288.392473  25517.564069      -.010249                    
P 23   2008.609160 -22022.279203 -14505.911102    372.322433                    
V 23   8804.405832  16389.528466 -24013.981760      -.013094                    
P 24   7377.074468  14554.821586  21096.838015    283.789572                    
V 24 -17823.102944  19703.396324  -7148.965313       .032234                    
P 26  -2026.952177  22157.632746  13590.083205    -46.430838                    
V 26  -7618.577802 -16781.122276  25641.122259      -.048085                    
P 27 -17456.527482  19489.509906   4739.954475    148.158082                    
V 27   1103.388009  -5537.119515  31494.856198       .034711                    
P 28 -18214.657933 -13367.926464  14668.663088    -17.229011                    
V 28  17681.311953   1483.465446  23814.054208       .009203                    
P 29   4100.148338  25271.077481  -7055.911540    116.851624                    
V 29  -5664.062852  -7580.897877 -29997.262460       .028147                    
P 30   1601.418684  15627.125521 -21815.075181    238.814576                    
V 30 -26695.420389  -2220.058238  -3562.104059       .035674                    
P 31  15971.509845   2491.278376 -20902.693425    -38.971528                    
V 31 -16096.245022  21607.559834  -9458.125686       .021621                    
P 32  16972.599269  -8981.096370 -17860.308378     38.778833                    
V 32  22503.203073   7035.901873  17841.277725      -.084849                    
EOF
